IRIDIUM 155             
1 43573U 18061E   20203.84526082  .00000065  00000-0  16012-4 0  9995
2 43573  86.3960 237.8167 0002150 106.4756 253.6676 14.34219143104289
IRIDIUM 154             
1 43574U 18061F   20203.82623359  .00000063  00000-0  15330-4 0  9999
2 43574  86.3964 237.8560 0002237  83.6858 276.4593 14.34216280104332
IRIDIUM 163             
1 43575U 18061G   20203.80721521  .00000070  00000-0  17770-4 0  9996
2 43575  86.3961 237.8447 0002914  88.7250 271.4280 14.34217065104305
IRIDIUM 156             
1 43576U 18061H   20203.85161076  .00000066  00000-0  16601-4 0  9992
2 43576  86.3960 237.8308 0002570  97.2886 262.8602 14.34217543104302
IRIDIUM 164             
1 43577U 18061J   20203.83257339  .00000041  00000-0  76320-5 0  9997
2 43577  86.3962 237.8465 0002382  85.9112 274.2356 14.34215828104347
IRIDIUM 159             
1 43578U 18061K   20203.80086939  .00000066  00000-0  16666-4 0  9994
2 43578  86.3961 237.8417 0002302  86.3642 273.7817 14.34216788104307
IRIDIUM 180             
1 43922U 19002A   20204.00966396  .00000049  00000-0  10277-4 0  9993
2 43922  86.4002 174.6655 0002867  63.7627 296.3864 14.34219726 79980
IRIDIUM 176             
1 43923U 19002B   20203.67964862  .00000094  00000-0  11025-4 0  9994
2 43923  86.6137 174.8300 0002561  82.8550 277.2958 14.72253613 81967
IRIDIUM 168             
1 43924U 19002C   20204.00331056  .00000046  00000-0  94855-5 0  9996
2 43924  86.4005 174.6844 0002263  78.5740 281.5709 14.34219570 79920
IRIDIUM 173             
1 43925U 19002D   20203.64180335  .00000057  00000-0  13177-4 0  9997
2 43925  86.4000 174.8118 0002333  81.4543 278.6917 14.34217225 79860
IRIDIUM 169             
1 43926U 19002E   20203.46693731  .00000056  00000-0  11867-4 0  9990
2 43926  86.4238 206.4299 0003323 220.1490 139.9463 14.38609755 80155
IRIDIUM 172             
1 43927U 19002F   20203.98429911  .00000052  00000-0  11662-4 0  9994
2 43927  86.4000 174.6701 0002370  79.0731 281.0732 14.34216796 79912
IRIDIUM 175             
1 43928U 19002G   20203.67346758  .00000088  00000-0  10105-4 0  9998
2 43928  86.6121 174.7179 0002998 101.2222 258.9332 14.72253737 81952
IRIDIUM 171             
1 43929U 19002H   20203.68619431  .00000049  00000-0  10298-4 0  9991
2 43929  86.4010 174.8611 0002251  78.7530 281.3918 14.34217914 79864
IRIDIUM 170             
1 43930U 19002J   20203.41391769  .00000095  00000-0  11107-4 0  9996
2 43930  86.6137 174.9477 0002801  86.3753 273.7784 14.72254885 81939
IRIDIUM 167             
1 43931U 19002K   20203.95891398  .00000045  00000-0  89923-5 0  9996
2 43931  86.4000 174.6838 0002676  65.3268 294.8206 14.34220095 79904
